{
  "type": "FeatureCollection",
  "features": [
    {
      "type": "Feature",
      "properties": {
        "norad_id": 31788,
        "name": "FENGYUN 1C DEB",
        "group": "fengyun-1c-debris",
        "lat": -60.54458334722031,
        "lon": 162.91691748775028,
        "alt_km": 1320.0863614233767,
        "timestamp": "2025-12-20T16:47:36.570786+00:00",
        "meta_object_name": "FENGYUN 1C DEB",
        "meta_object_id": "1999-025CGP",
        "meta_epoch": "2025-12-19T16:12:03.386880",
        "meta_mean_motion": 13.45122143,
        "meta_eccentricity": 0.0461749,
        "meta_inclination": 102.5553,
        "meta_ra_of_asc_node": 138.3955,
        "meta_arg_of_pericenter": 71.4155,
        "meta_mean_anomaly": 309.761,
        "meta_ephemeris_type": 0,
        "meta_classification_type": "U",
        "meta_norad_cat_id": 31788,
        "meta_element_set_no": 999,
        "meta_rev_at_epoch": 90698,
        "meta_bstar": 0.001479,
        "meta_mean_motion_dot": 1.6e-05,
        "meta_mean_motion_ddot": 0,
        "tle_line1": "1 31788U 99025CGP 25353.67503920  .00001600  00000+0  14790-2 0  9991",
        "tle_line2": "2 31788 102.5553 138.3955 0461749  71.4155 309.7610 13.45122143906982"
      },
      "geometry": {
        "type": "Point",
        "coordinates": [
          162.91691748775028,
          -60.54458334722031
        ]
      }
    },
    {
      "type": "Feature",
      "properties": {
        "norad_id": 31805,
        "name": "FENGYUN 1C DEB",
        "group": "fengyun-1c-debris",
        "lat": 8.260963295876266,
        "lon": -22.95800598943848,
        "alt_km": 1075.840693769661,
        "timestamp": "2025-12-20T16:47:36.570796+00:00",
        "meta_object_name": "FENGYUN 1C DEB",
        "meta_object_id": "1999-025CGT",
        "meta_epoch": "2025-12-19T04:48:11.618208",
        "meta_mean_motion": 14.02854429,
        "meta_eccentricity": 0.04473672,
        "meta_inclination": 98.3621,
        "meta_ra_of_asc_node": 336.8825,
        "meta_arg_of_pericenter": 140.5918,
        "meta_mean_anomaly": 222.8714,
        "meta_ephemeris_type": 0,
        "meta_classification_type": "U",
        "meta_norad_cat_id": 31805,
        "meta_element_set_no": 999,
        "meta_rev_at_epoch": 62454,
        "meta_bstar": 0.00073843646,
        "meta_mean_motion_dot": 2.752e-05,
        "meta_mean_motion_ddot": 0,
        "tle_line1": "1 31805U 99025CGT 25353.20013447  .00002752  00000+0  73844-3 0  9995",
        "tle_line2": "2 31805  98.3621 336.8825 0447367 140.5918 222.8714 14.02854429624548"
      },
      "geometry": {
        "type": "Point",
        "coordinates": [
          -22.95800598943848,
          8.260963295876266
        ]
      }
    },
    {
      "type": "Feature",
      "properties": {
        "norad_id": 31807,
        "name": "FENGYUN 1C DEB",
        "group": "fengyun-1c-debris",
        "lat": -60.355561194545096,
        "lon": 142.60531409921444,
        "alt_km": 796.1537748745095,
        "timestamp": "2025-12-20T16:47:36.570806+00:00",
        "meta_object_name": "FENGYUN 1C DEB",
        "meta_object_id": "1999-025CGV",
        "meta_epoch": "2025-12-20T02:11:56.055264",
        "meta_mean_motion": 14.52092951,
        "meta_eccentricity": 0.01056723,
        "meta_inclination": 99.0773,
        "meta_ra_of_asc_node": 125.6333,
        "meta_arg_of_pericenter": 140.5729,
        "meta_mean_anomaly": 220.3216,
        "meta_ephemeris_type": 0,
        "meta_classification_type": "U",
        "meta_norad_cat_id": 31807,
        "meta_element_set_no": 999,
        "meta_rev_at_epoch": 65412,
        "meta_bstar": 0.00055367814,
        "meta_mean_motion_dot": 2.354e-05,
        "meta_mean_motion_ddot": 0,
        "tle_line1": "1 31807U 99025CGV 25354.09162101  .00002354  00000+0  55368-3 0  9996",
        "tle_line2": "2 31807  99.0773 125.6333 0105672 140.5729 220.3216 14.52092951654120"
      },
      "geometry": {
        "type": "Point",
        "coordinates": [
          142.60531409921444,
          -60.355561194545096
        ]
      }
    },
    {
      "type": "Feature",
      "properties": {
        "norad_id": 31808,
        "name": "FENGYUN 1C DEB",
        "group": "fengyun-1c-debris",
        "lat": 32.36433434270628,
        "lon": 8.407080483000701,
        "alt_km": 677.8562653828521,
        "timestamp": "2025-12-20T16:47:36.570816+00:00",
        "meta_object_name": "FENGYUN 1C DEB",
        "meta_object_id": "1999-025CGW",
        "meta_epoch": "2025-12-19T18:42:17.529120",
        "meta_mean_motion": 14.57488452,
        "meta_eccentricity": 0.00360596,
        "meta_inclination": 99.2028,
        "meta_ra_of_asc_node": 181.4934,
        "meta_arg_of_pericenter": 116.7543,
        "meta_mean_anomaly": 243.7349,
        "meta_ephemeris_type": 0,
        "meta_classification_type": "U",
        "meta_norad_cat_id": 31808,
        "meta_element_set_no": 999,
        "meta_rev_at_epoch": 57705,
        "meta_bstar": 0.0028333961,
        "meta_mean_motion_dot": 0.00012956,
        "meta_mean_motion_ddot": 0,
        "tle_line1": "1 31808U 99025CGW 25353.77936955  .00012956  00000+0  28334-2 0  9998",
        "tle_line2": "2 31808  99.2028 181.4934 0036059 116.7543 243.7349 14.57488452577056"
      },
      "geometry": {
        "type": "Point",
        "coordinates": [
          8.407080483000701,
          32.36433434270628
        ]
      }
    },
    {
      "type": "Feature",
      "properties": {
        "norad_id": 31810,
        "name": "FENGYUN 1C DEB",
        "group": "fengyun-1c-debris",
        "lat": 7.810431793871501,
        "lon": 8.748563978327336,
        "alt_km": 785.7522106904735,
        "timestamp": "2025-12-20T16:47:36.570826+00:00",
        "meta_object_name": "FENGYUN 1C DEB",
        "meta_object_id": "1999-025CGY",
        "meta_epoch": "2025-12-17T20:39:34.005600",
        "meta_mean_motion": 14.45854827,
        "meta_eccentricity": 0.0214524,
        "meta_inclination": 98.269,
        "meta_ra_of_asc_node": 7.1218,
        "meta_arg_of_pericenter": 124.8314,
        "meta_mean_anomaly": 237.3263,
        "meta_ephemeris_type": 0,
        "meta_classification_type": "U",
        "meta_norad_cat_id": 31810,
        "meta_element_set_no": 999,
        "meta_rev_at_epoch": 64488,
        "meta_bstar": 0.00038073485,
        "meta_mean_motion_dot": 1.748e-05,
        "meta_mean_motion_ddot": 0,
        "tle_line1": "1 31810U 99025CGY 25351.86081025  .00001748  00000+0  38073-3 0  9997",
        "tle_line2": "2 31810  98.2690   7.1218 0214524 124.8314 237.3263 14.45854827644883"
      },
      "geometry": {
        "type": "Point",
        "coordinates": [
          8.748563978327336,
          7.810431793871501
        ]
      }
    },
    {
      "type": "Feature",
      "properties": {
        "norad_id": 31813,
        "name": "FENGYUN 1C DEB",
        "group": "fengyun-1c-debris",
        "lat": 47.20138444300443,
        "lon": 64.82865621306746,
        "alt_km": 734.3117739006166,
        "timestamp": "2025-12-20T16:47:36.570835+00:00",
        "meta_object_name": "FENGYUN 1C DEB",
        "meta_object_id": "1999-025CHB",
        "meta_epoch": "2025-12-19T04:08:07.148544",
        "meta_mean_motion": 14.4980422,
        "meta_eccentricity": 0.01359265,
        "meta_inclination": 99.4267,
        "meta_ra_of_asc_node": 73.4576,
        "meta_arg_of_pericenter": 314.58,
        "meta_mean_anomaly": 44.436,
        "meta_ephemeris_type": 0,
        "meta_classification_type": "U",
        "meta_norad_cat_id": 31813,
        "meta_element_set_no": 999,
        "meta_rev_at_epoch": 97349,
        "meta_bstar": 0.0003332184,
        "meta_mean_motion_dot": 1.382e-05,
        "meta_mean_motion_ddot": 0,
        "tle_line1": "1 31813U 99025CHB 25353.17230496  .00001382  00000+0  33322-3 0  9990",
        "tle_line2": "2 31813  99.4267  73.4576 0135926 314.5800  44.4360 14.49804220973491"
      },
      "geometry": {
        "type": "Point",
        "coordinates": [
          64.82865621306746,
          47.20138444300443
        ]
      }
    },
    {
      "type": "Feature",
      "properties": {
        "norad_id": 31814,
        "name": "FENGYUN 1C DEB",
        "group": "fengyun-1c-debris",
        "lat": -6.267198735435518,
        "lon": 45.56752767719014,
        "alt_km": 1173.652443195425,
        "timestamp": "2025-12-20T16:47:36.570847+00:00",
        "meta_object_name": "FENGYUN 1C DEB",
        "meta_object_id": "1999-025CHC",
        "meta_epoch": "2025-12-19T21:29:44.460672",
        "meta_mean_motion": 13.66482517,
        "meta_eccentricity": 0.0230134,
        "meta_inclination": 99.5711,
        "meta_ra_of_asc_node": 43.7106,
        "meta_arg_of_pericenter": 197.2318,
        "meta_mean_anomaly": 162.0919,
        "meta_ephemeris_type": 0,
        "meta_classification_type": "U",
        "meta_norad_cat_id": 31814,
        "meta_element_set_no": 999,
        "meta_rev_at_epoch": 61897,
        "meta_bstar": 0.00047248,
        "meta_mean_motion_dot": 4.25e-06,
        "meta_mean_motion_ddot": 0,
        "tle_line1": "1 31814U 99025CHC 25353.89565348  .00000425  00000+0  47248-3 0  9996",
        "tle_line2": "2 31814  99.5711  43.7106 0230134 197.2318 162.0919 13.66482517618978"
      },
      "geometry": {
        "type": "Point",
        "coordinates": [
          45.56752767719014,
          -6.267198735435518
        ]
      }
    }
  ]
}